[{"OBJECT_NAME":"STARLINK-5750","OBJECT_ID":"2023-020AB","EPOCH":"2026-03-09T22:00:01.999584","MEAN_MOTION":15.1157446,"ECCENTRICITY":0.00010799,"INCLINATION":42.9996,"RA_OF_ASC_NODE":2.8154,"ARG_OF_PERICENTER":239.6654,"MEAN_ANOMALY":3.4658,"EPHEMERIS_TYPE":0,"CLASSIFICATION_TYPE":"U","NORAD_CAT_ID":55594,"ELEMENT_SET_NO":999,"REV_AT_EPOCH":577,"BSTAR":0.070030439,"MEAN_MOTION_DOT":0.01312742,"MEAN_MOTION_DDOT":0},{"OBJECT_NAME":"NUSAT-48 (HENRIETTA LEAVITT)","OBJECT_ID":"2024-149AG","EPOCH":"2026-03-09T19:19:17.269536","MEAN_MOTION":15.29812597,"ECCENTRICITY":0.00027538,"INCLINATION":97.3923,"RA_OF_ASC_NODE":150.8264,"ARG_OF_PERICENTER":263.3026,"MEAN_ANOMALY":96.7901,"EPHEMERIS_TYPE":0,"CLASSIFICATION_TYPE":"U","NORAD_CAT_ID":60498,"ELEMENT_SET_NO":999,"REV_AT_EPOCH":8694,"BSTAR":0.00045211745,"MEAN_MOTION_DOT":0.00012988,"MEAN_MOTION_DDOT":0}]
